NORAD_CAT_ID,OBJECT_NAME,OBJECT_TYPE,EPOCH,MEAN_MOTION,ECCENTRICITY,INCLINATION,RA_OF_ASC_NODE,ARG_OF_PERICENTER,MEAN_ANOMALY,BSTAR,MEAN_MOTION_DOT,MEAN_MOTION_DDOT,TLE_LINE0,TLE_LINE1,TLE_LINE2,SEMIMAJOR_AXIS,PERIOD,APOGEE,PERIGEE,DECAYED
50161.0,STARLINK-3304,PAYLOAD,2022-12-18 11:41:10,15.08838148,0.0003612,53.2161,143.79,54.69300000000001,305.4399,0.00011185,1.492e-05,0.0,0 STARLINK-3304,1 50161U 21125F   22352.48692934  .00001492  00000-0  11185-3 0  9998,2 50161  53.2161 143.7900 0003612  54.6930 305.4399 15.08838148 58738,6917.886,95.438,542.25,537.252,0.0
50161.0,STARLINK-3304,PAYLOAD,2022-12-18 19:38:06,15.08842323,0.0003626,53.2161,142.303,55.2505,304.8828,0.00012374,1.681e-05,0.0,0 STARLINK-3304,1 50161U 21125F   22352.81812767  .00001681  00000-0  12374-3 0  9994,2 50161  53.2161 142.3030 0003626  55.2505 304.8828 15.08842323 58782,6917.873000000001,95.437,542.247,537.23,0.0
50161.0,STARLINK-3304,PAYLOAD,2022-12-19 05:10:24,15.08853449,0.0003567,53.2174,140.5192,55.9842,304.1488,0.0001192,1.6100000000000002e-05,0.0,0 STARLINK-3304,1 50161U 21125F   22353.21555944  .00001610  00000-0  11920-3 0  9998,2 50161  53.2174 140.5192 0003567  55.9842 304.1488 15.08853449 58360,6917.839,95.437,542.172,537.237,0.0
50161.0,STARLINK-3304,PAYLOAD,2022-12-19 11:31:57,15.08841156,0.0003886,53.2166,139.3308,52.8731,307.2615,0.00014573,2.031e-05,0.0,0 STARLINK-3304,1 50161U 21125F   22353.48052920  .00002031  00000-0  14573-3 0  9998,2 50161  53.2166 139.3308 0003886  52.8731 307.2615 15.08841156 58888,6917.877,95.437,542.43,537.054,0.0
50161.0,STARLINK-3304,PAYLOAD,2022-12-19 13:07:20,15.0883888,0.0003603,53.2161,139.0323,55.3067,304.8265,0.00018578,2.669e-05,0.0,0 STARLINK-3304,1 50161U 21125F   22353.54676993  .00002669  00000-0  18578-3 0  9993,2 50161  53.2161 139.0323 0003603  55.3067 304.8265 15.08838880 58417,6917.884,95.438,542.241,537.256,0.0
50161.0,STARLINK-3304,PAYLOAD,2022-12-19 17:53:30,15.08843132,0.0003622,53.2161,138.1403,55.4327,304.7006,0.00025742,3.811e-05,0.0,0 STARLINK-3304,1 50161U 21125F   22353.74548831  .00003811  00000-0  25742-3 0  9995,2 50161  53.2161 138.1403 0003622  55.4327 304.7006 15.08843132 58921,6917.871,95.437,542.241,537.23,0.0
50161.0,STARLINK-3304,PAYLOAD,2022-12-20 11:22:44,15.08853608,0.0003811,53.2157,134.8692,51.3628,308.7704,0.00033082,4.983e-05,0.0,0 STARLINK-3304,1 50161U 21125F   22354.47412225  .00004983  00000-0  33082-3 0  9990,2 50161  53.2157 134.8692 0003811  51.3628 308.7704 15.08853608 58555,6917.839,95.437,542.34,537.067,0.0
50161.0,STARLINK-3304,PAYLOAD,2022-12-21 04:51:58,15.08845812,0.0003692,53.2154,131.5985,55.8402,304.2940000000001,6.274e-05,7.1e-06,0.0,0 STARLINK-3304,1 50161U 21125F   22355.20276126  .00000710  00000-0  62740-4 0  9998,2 50161  53.2154 131.5985 0003692  55.8402 304.2940 15.08845812 58660,6917.863,95.437,542.2819999999998,537.174,0.0
50161.0,STARLINK-3304,PAYLOAD,2022-12-21 11:13:31,15.08833937,0.0003172,53.2171,130.4086,52.0863,308.0415,-0.00016428,-2.902e-05,0.0,0 STARLINK-3304,1 50161U 21125F   22355.46772406 -.00002902  00000-0 -16428-3 0  9996,2 50161  53.2171 130.4086 0003172  52.0863 308.0415 15.08833937 58701,6917.899,95.438,541.9580000000002,537.57,0.0
50161.0,STARLINK-3304,PAYLOAD,2022-12-22 09:28:55,15.08845406,0.0003442,53.2165,126.2458,56.4788,303.6533,5.0623e-05,5.17e-06,0.0,0 STARLINK-3304,1 50161U 21125F   22356.39508229  .00000517  00000-0  50623-4 0  9993,2 50161  53.2165 126.2458 0003442  56.4788 303.6533 15.08845406 59329,6917.864000000001,95.437,542.11,537.3480000000002,0.0
50161.0,STARLINK-3304,PAYLOAD,2022-12-22 12:39:41,15.0884702,0.0003475,53.2168,125.6515,55.44300000000001,304.6889,0.0001024,1.342e-05,0.0,0 STARLINK-3304,1 50161U 21125F   22356.52756140  .00001342  00000-0  10240-3 0  9992,2 50161  53.2168 125.6515 0003475  55.4430 304.6889 15.08847020 58865,6917.859,95.437,542.128,537.32,0.0
50161.0,STARLINK-3304,PAYLOAD,2022-12-22 15:50:27,15.08844675,0.0003477,53.2167,125.0565,56.1557,303.9766,5.7113e-05,6.2e-06,0.0,0 STARLINK-3304,1 50161U 21125F   22356.66004243  .00000620  00000-0  57113-4 0  9996,2 50161  53.2167 125.0565 0003477  56.1557 303.9766 15.08844675 59368,6917.866,95.437,542.136,537.326,0.0
50161.0,STARLINK-3304,PAYLOAD,2022-12-23 04:33:33,15.08835135,0.0003427,53.2166,122.6781,56.485,303.6469,7.8457e-06,-1.64e-06,0.0,0 STARLINK-3304,1 50161U 21125F   22357.18996846 -.00000164  00000-0  78457-5 0  9992,2 50161  53.2166 122.6781 0003427  56.4850 303.6469 15.08835135 58967,6917.895,95.438,542.131,537.389,0.0
50161.0,STARLINK-3304,PAYLOAD,2022-12-23 10:55:06,15.08823266,0.000335,53.2171,121.4888,56.292,303.8391,0.00010103,1.319e-05,0.0,0 STARLINK-3304,1 50161U 21125F   22357.45493837  .00001319  00000-0  10103-3 0  9998,2 50161  53.2171 121.4888 0003350  56.2920 303.8391 15.08823266 59003,6917.932,95.439,542.114,537.479,0.0
50161.0,STARLINK-3304,PAYLOAD,2022-12-23 18:52:02,15.08833227,0.0003317,53.2172,120.0024,56.4857,303.6452,0.00012746,1.74e-05,0.0,0 STARLINK-3304,1 50161U 21125F   22357.78613439  .00001740  00000-0  12746-3 0  9999,2 50161  53.2172 120.0024 0003317  56.4857 303.6452 15.08833227 59537,6917.901,95.438,542.061,537.471,0.0
50161.0,STARLINK-3304,PAYLOAD,2022-12-24 01:13:34,15.08841903,0.0003343,53.2173,118.8132,54.7169,305.4135,0.00014776,2.064e-05,0.0,0 STARLINK-3304,1 50161U 21125F   22358.05108906  .00002064  00000-0  14776-3 0  9993,2 50161  53.2173 118.8132 0003343  54.7169 305.4135 15.08841903 59098,6917.875,95.437,542.052,537.427,0.0
50161.0,STARLINK-3304,PAYLOAD,2022-12-24 10:45:52,15.0884149,0.0003736,53.2171,117.0302,51.1631,308.9694,2.9485e-06,-2.42e-06,0.0,0 STARLINK-3304,1 50161U 21125F   22358.44852932 -.00000242  00000-0  29485-5 0  9993,2 50161  53.2171 117.0302 0003736  51.1631 308.9694 15.08841490 59636,6917.876,95.437,542.325,537.156,0.0
50161.0,STARLINK-3304,PAYLOAD,2022-12-25 01:04:20,15.08846094,0.000327,53.2167,114.3526,55.4202,304.7098,0.00016031,2.264e-05,0.0,0 STARLINK-3304,1 50161U 21125F   22359.04468574  .00002264  00000-0  16031-3 0  9991,2 50161  53.2167 114.3526 0003270  55.4202 304.7098 15.08846094 59720,6917.861999999999,95.437,541.989,537.465,0.0
50161.0,STARLINK-3304,PAYLOAD,2022-12-25 13:47:26,15.08838457,0.0003281,53.2171,111.9735,55.2986,304.8315,0.00012751,1.741e-05,0.0,0 STARLINK-3304,1 50161U 21125F   22359.57461037  .00001741  00000-0  12751-3 0  9990,2 50161  53.2171 111.9735 0003281  55.2986 304.8315 15.08838457 59322,6917.885,95.438,542.02,537.48,0.0
50161.0,STARLINK-3304,PAYLOAD,2022-12-25 16:58:12,15.08834822,0.0003235,53.2169,111.3793,55.2807,304.8489,5.629e-05,6.07e-06,0.0,0 STARLINK-3304,1 50161U 21125F   22359.70709292  .00000607  00000-0  56290-4 0  9990,2 50161  53.2169 111.3793 0003235  55.2807 304.8489 15.08834822 59827,6917.896,95.438,541.999,537.523,0.0
50161.0,STARLINK-3304,PAYLOAD,2022-12-26 13:38:13,15.08845656,0.0003267,53.2174,107.5141,52.7551,307.3739,0.00021161,3.081e-05,0.0,0 STARLINK-3304,1 50161U 21125F   22360.56820987  .00003081  00000-0  21161-3 0  9998,2 50161  53.2174 107.5141 0003267  52.7551 307.3739 15.08845656 59957,6917.863,95.437,541.988,537.4680000000002,0.0
50161.0,STARLINK-3304,PAYLOAD,2022-12-26 15:13:36,15.08843802,0.0003408,53.2172,107.2177,51.2624,308.8672,0.00018608,2.674e-05,0.0,0 STARLINK-3304,1 50161U 21125F   22360.63445162  .00002674  00000-0  18608-3 0  9993,2 50161  53.2172 107.2177 0003408  51.2624 308.8672 15.08843802 59484,6917.869000000002,95.437,542.091,537.376,0.0
50161.0,STARLINK-3304,PAYLOAD,2022-12-27 11:53:36,15.08860085,0.0003474,53.2171,103.3518,49.9604,310.1693,0.0005372999999999,8.278e-05,0.0,0 STARLINK-3304,1 50161U 21125F   22361.49556505  .00008278  00000-0  53730-3 0  9993,2 50161  53.2171 103.3518 0003474  49.9604 310.1693 15.08860085 60094,6917.819,95.436,542.087,537.281,0.0
50161.0,STARLINK-3304,PAYLOAD,2022-12-28 13:19:46,15.08840963,0.0002746,53.2168,98.5933,43.6249,316.496,-0.00037493,-6.251e-05,0.0,0 STARLINK-3304,1 50161U 21125F   22362.55539466 -.00006251  00000-0 -37493-3 0  9997,2 50161  53.2168  98.5933 0002746  43.6249 316.4960 15.08840963 60250,6917.877,95.437,541.6419999999998,537.8430000000002,0.0
50161.0,STARLINK-3304,PAYLOAD,2022-12-28 14:55:09,15.08842003,0.0002812,53.217,98.2964,43.3751,316.7462,-0.00019344,-3.366e-05,0.0,0 STARLINK-3304,1 50161U 21125F   22362.62163655 -.00003366  00000-0 -19344-3 0  9997,2 50161  53.2170  98.2964 0002812  43.3751 316.7462 15.08842003 59786,6917.874,95.437,541.685,537.794,0.0
50161.0,STARLINK-3304,PAYLOAD,2022-12-29 05:13:38,15.08817612,0.0002692,53.217,95.6199,47.437,312.6849,-0.00039049,-6.494e-05,0.0,0 STARLINK-3304,1 50161U 21125F   22363.21780634 -.00006494  00000-0 -39049-3 0  9994,2 50161  53.2170  95.6199 0002692  47.4370 312.6849 15.08817612 59877,6917.949000000001,95.439,541.6759999999998,537.952,0.0
50161.0,STARLINK-3304,PAYLOAD,2022-12-29 13:10:35,15.08817284,0.0002917,53.2175,94.132,50.6178,309.5072,-0.0003616,-6.036e-05,0.0,0 STARLINK-3304,1 50161U 21125F   22363.54901770 -.00006036  00000-0 -36160-3 0  9999,2 50161  53.2175  94.1320 0002917  50.6178 309.5072 15.08817284 60403,6917.95,95.439,541.8330000000002,537.797,0.0
50161.0,STARLINK-3304,PAYLOAD,2022-12-29 22:42:54,15.08813257,0.000283,53.2175,92.3485,49.2803,310.8435,-0.00027962,-4.733e-05,0.0,0 STARLINK-3304,1 50161U 21125F   22363.94646922 -.00004733  00000-0 -27962-3 0  9990,2 50161  53.2175  92.3485 0002830  49.2803 310.8435 15.08813257 59983,6917.962,95.439,541.785,537.869,0.0
50161.0,STARLINK-3304,PAYLOAD,2022-12-30 13:01:23,15.08836993,0.0002722,53.2178,89.6735,46.9861,313.1358,0.00055035,8.481e-05,0.0,0 STARLINK-3304,1 50161U 21125F   22364.54262845  .00008481  00000-0  55035-3 0  9999,2 50161  53.2178  89.6735 0002722  46.9861 313.1358 15.08836993 60075,6917.89,95.438,541.638,537.872,0.0
